SOYUZ-MS 28             
1 66664U 25275A   26196.76640667  .00004078  00000+0  82095-4 0  9991
2 66664  51.6311 158.6576 0006719 300.0875  59.9447 15.49019038575286
CREW DRAGON 12          
1 67796U 26031A   26196.76640667  .00004078  00000+0  82095-4 0  9999
2 67796  51.6311 158.6576 0006719 300.0875  59.9447 15.49019038575249
SHENZHOU-23 (SZ-23)     
1 69180U 26113A   26196.53543323  .00001219  00000+0  20014-4 0  9992
2 69180  41.4690 149.7716 0002228 300.3824  59.6794 15.58093729296870
