{"fetched_at":"2026-07-16T06:42:43.777Z","source":"https://celestrak.org/NORAD/elements/gp.php?GROUP=stations&FORMAT=JSON","constellation":"crewed-vehicles","records":[{"OBJECT_NAME":"SOYUZ-MS 28","OBJECT_ID":"2025-275A","EPOCH":"2026-07-15T18:23:37.536288","CLASSIFICATION_TYPE":"U","MEAN_MOTION":15.49019038,"ECCENTRICITY":0.00067189,"INCLINATION":51.6311,"RA_OF_ASC_NODE":158.6576,"ARG_OF_PERICENTER":300.0875,"MEAN_ANOMALY":59.9447,"EPHEMERIS_TYPE":0,"NORAD_CAT_ID":66664,"ELEMENT_SET_NO":999,"REV_AT_EPOCH":57527,"BSTAR":0.000082095193,"MEAN_MOTION_DOT":0.00004078,"MEAN_MOTION_DDOT":0},{"OBJECT_NAME":"CREW DRAGON 12","OBJECT_ID":"2026-031A","EPOCH":"2026-07-15T18:23:37.536288","CLASSIFICATION_TYPE":"U","MEAN_MOTION":15.49019038,"ECCENTRICITY":0.00067189,"INCLINATION":51.6311,"RA_OF_ASC_NODE":158.6576,"ARG_OF_PERICENTER":300.0875,"MEAN_ANOMALY":59.9447,"EPHEMERIS_TYPE":0,"NORAD_CAT_ID":67796,"ELEMENT_SET_NO":999,"REV_AT_EPOCH":57524,"BSTAR":0.000082095193,"MEAN_MOTION_DOT":0.00004078,"MEAN_MOTION_DDOT":0},{"OBJECT_NAME":"SHENZHOU-23 (SZ-23)","OBJECT_ID":"2026-113A","EPOCH":"2026-07-15T12:51:01.431072","CLASSIFICATION_TYPE":"U","MEAN_MOTION":15.58093729,"ECCENTRICITY":0.00022286,"INCLINATION":41.469,"RA_OF_ASC_NODE":149.7716,"ARG_OF_PERICENTER":300.3824,"MEAN_ANOMALY":59.6794,"EPHEMERIS_TYPE":0,"NORAD_CAT_ID":69180,"ELEMENT_SET_NO":999,"REV_AT_EPOCH":29687,"BSTAR":0.000020013762,"MEAN_MOTION_DOT":0.00001219,"MEAN_MOTION_DDOT":0}]}
